OBJECT B                
1 51825U 22019B   26031.88280407  .00046027  00000+0  62984-3 0  9994
2 51825  97.3607 117.9441 0006823 266.0572  93.9904 15.57262639218437
